[{"OBJECT_NAME":"STARLINK-32346","OBJECT_ID":"2024-202E","EPOCH":"2026-03-09T11:34:51.982176","MEAN_MOTION":15.27573633,"ECCENTRICITY":0.00019557,"INCLINATION":43.004,"RA_OF_ASC_NODE":228.1127,"ARG_OF_PERICENTER":284.2034,"MEAN_ANOMALY":75.8601,"EPHEMERIS_TYPE":0,"CLASSIFICATION_TYPE":"U","NORAD_CAT_ID":61849,"ELEMENT_SET_NO":999,"REV_AT_EPOCH":7542,"BSTAR":-1.1503501e-5,"MEAN_MOTION_DOT":-5.79e-6,"MEAN_MOTION_DDOT":0},{"OBJECT_NAME":"EDISON-1","OBJECT_ID":"2025-009B","EPOCH":"2026-03-09T19:16:13.822464","MEAN_MOTION":15.29042904,"ECCENTRICITY":0.00043285,"INCLINATION":97.4042,"RA_OF_ASC_NODE":151.6286,"ARG_OF_PERICENTER":306.4185,"MEAN_ANOMALY":53.6655,"EPHEMERIS_TYPE":0,"CLASSIFICATION_TYPE":"U","NORAD_CAT_ID":62610,"ELEMENT_SET_NO":999,"REV_AT_EPOCH":6375,"BSTAR":0.00052814963,"MEAN_MOTION_DOT":0.00014835,"MEAN_MOTION_DDOT":0}]
